#aV2006  8 25  0  0   .00000000      96 DD+AD WGS84 FIT  NGA
## 1389 432000.00000000   900.00000000 53972  .0000000000000
+   29     1  2  3  4  5  6  7  8  9 10 11 13 14 15 16 17 18
+         19 20 21 22 23 24 25 26 27 28 29 30  0  0  0  0  0
+          0  0  0  0  0  0  0  0  0  0  0  0  0  0  0  0  0
+          0  0  0  0  0  0  0  0  0  0  0  0  0  0  0  0  0
+          0  0  0  0  0  0  0  0  0  0  0  0  0  0  0  0  0
++         0  0  0  0  0  0  0  0  0  0  0  0  0  0  0  0  0
++         0  0  0  0  0  0  0  0  0  0  0  0  0  0  0  0  0
++         0  0  0  0  0  0  0  0  0  0  0  0  0  0  0  0  0
++         0  0  0  0  0  0  0  0  0  0  0  0  0  0  0  0  0
++         0  0  0  0  0  0  0  0  0  0  0  0  0  0  0  0  0
%c cc cc ccc ccc cccc cccc cccc cccc ccccc ccccc ccccc ccccc
%c cc cc ccc ccc cccc cccc cccc cccc ccccc ccccc ccccc ccccc
%f  0.0000000  0.000000000  0.00000000000  0.000000000000000
%f  0.0000000  0.000000000  0.00000000000  0.000000000000000
%i    0    0    0    0      0      0      0      0         0
%i    0    0    0    0      0      0      0      0         0
/*      NGA, ST. LOUIS,MO.                                  
/*   EPHEMERIS COMPUTED FROM  3 DAYS OF DATA                
/* CCCCCCCCCCCCCCCCCCCCCCCCCCCCCCCCCCCCCCCCCCCCCCCCCCCCCCCCC
/* CCCCCCCCCCCCCCCCCCCCCCCCCCCCCCCCCCCCCCCCCCCCCCCCCCCCCCCCC
*  2006  8 25 16 45   .00000000                                                 
P  1   6397.733080 -16855.608299  19678.300362     72.907735                    
V  1  22872.557615  -8862.210519 -15237.107954       .022117                    
P  2   5750.252467  19047.021925  17460.739991     28.020309                    
V  2 -19704.970424 -11218.120415  18245.491548       .039604                    
P  3   -101.400668 -17521.248744 -20056.131441    148.773175                    
V  3  22435.466391 -11783.159459  10589.501969      -.223025                    
P  4  -7971.914656  13282.476678  21523.079938    299.526427                    
V  4 -22599.926572 -15643.209159   1628.384852       .063066                    
P  5  12914.379511  15084.431550  17501.629797    315.950287                    
V  5  -1824.235638  22669.247766 -17806.906643       .185964                    
P  6  24483.098748  -5062.668784   9255.907865    599.220357                    
V  6  -8711.228723   8181.764381  28047.036973      -.004297                    
P  7  16467.790274 -17930.418890 -10399.631026    533.170847                    
V  7  13531.134138  -3893.487700  27147.010131      -.031921                    
P  8 -15554.492183   6087.546841 -20888.873737    -77.270107                    
V  8 -20531.932475 -16056.534938  10273.000113      -.013444                    
P  9  20751.625560  16428.047703  -4089.730661     33.402915                    
V  9  -5087.027667   -277.771693 -31049.960538       .015319                    
P 10   1417.218159  25732.755872  -5806.221938     88.642708                    
V 10  -3294.126109   7010.664853  31076.182630       .006182                    
P 11 -23333.857401 -12857.256209  -1854.922299    346.824202                    
V 11   4042.122496  -3140.833001 -29969.071459       .019165                    
P 13 -24689.492316   5227.753789   8116.121237     88.588625                    
V 13   8803.932130  -5826.428209  30228.362989       .032512                    
P 14  19959.380371 -15359.034729   8395.399145     -6.807272                    
V 14  10369.927425  -2729.588254 -29953.177266       .008498                    
P 15  15150.592342  -6837.712848 -20938.084709    658.640426                    
V 15  20075.216515  16845.054659   8664.869310      -.496915                    
P 16   1442.151555 -26424.303437  -1227.365145     67.548429                    
V 16   2986.055301  -1406.457162  31831.112463       .031369                    
P 17 -20228.284347  15430.117229   7439.852595     97.572104                    
V 17  -9742.106354   1597.129814 -29885.111450      -.010828                    
P 18  15361.017695  -6006.596996 -20635.433675   -247.274049                    
V 18  -2122.678648  26488.391785  -9556.708276      -.010165                    
P 19 -10365.445592 -11916.575967 -21254.520204     10.405883                    
V 19  25029.781301 -10766.977012  -6072.276336       .029242                    
P 20 -13598.632600 -10403.335624  20221.871092    -22.978566                    
V 20   2778.257299 -25757.239633 -11307.167695       .002460                    
P 21  20906.122883    431.758691 -16602.168821     49.260346                    
V 21  15845.695964  14025.148671  19674.801587       .019510                    
P 22  11942.501320 -19580.189578 -13217.820847    128.577303                    
V 22    262.759585  17238.156958 -25024.347283       .029752                    
P 23 -19958.801297  -3481.738411  17178.529834    137.745162                    
V 23  19081.100885 -10857.092784  19680.319864      -.000144                    
P 24 -14299.604436   7856.837494  21242.311196     31.149778                    
V 24 -20653.428110 -16428.826512  -7635.842099       .028248                    
P 25    672.645089 -16657.734405  21045.008466    302.575669                    
V 25  23033.341281  11808.265524   8920.365534       .141012                    
P 26   9004.878258  12020.731658 -22354.152218   -229.240078                    
V 26 -24933.513928  11057.519275  -3615.678367      -.142367                    
P 27 -22011.462037  -1391.821670 -14408.906559     64.637447                    
V 27 -15437.192448 -11682.439622  23411.474174       .017894                    
P 28 -12901.666138  16174.016471 -16159.753058     20.162733                    
V 28   -118.979065 -21320.938740 -21207.099054      -.009337                    
P 29   5589.338943  13423.276538 -21991.470707    500.151657                    
V 29 -25617.648505  12290.415706   1265.777673      -.034566                    
P 30  15414.953264    125.037467  21335.638169      7.963248                    
V 30  -1006.068007  27825.578082    673.147612       .011630                    
EOF
